KUIPER-00112            
1 65150U 25171U   25356.79722544 -.00003269  00000+0 -39918-3 0  9998
2 65150  51.9012 135.6077 0008971 266.1506  93.8431 14.79956514 21537
KUIPER-00114            
1 65151U 25171V   25357.75481472  .00003205  00000+0  44901-3 0  9994
2 65151  51.8985 151.3872 0006120 204.0373 156.0304 14.79960786 21392
KUIPER-00115            
1 65152U 25171W   25357.15525971  .00003306  00000+0  46231-3 0  9992
2 65152  51.8993 146.5220 0009429 228.8949 131.1200 14.79940007 21419
KUIPER-00116            
1 65153U 25171X   25357.79140697 -.00000856  00000+0 -82933-4 0  9990
2 65153  51.8985 148.7517 0009784 196.3289 163.7360 14.79926653 21435
KUIPER-00118            
1 65154U 25171Y   25357.72123380  .00003420  00000+0  47743-3 0  9991
2 65154  51.8987 151.5174 0001361 171.4352 188.6633 14.79925701 21394
KUIPER-00119            
1 65155U 25171Z   25357.12689458  .00003909  00000+0  54141-3 0  9991
2 65155  51.8984 141.7283 0007993 223.6128 136.4203 14.79931658 21473
KUIPER-00120            
1 65762U 25217A   25357.83334491 -.00049799  00000+0 -67423-2 0  9993
2 65762  51.8993  27.2667 0003241 120.3759 149.7027 14.78723012  4896
KUIPER-00132            
1 65763U 25217B   25356.32234918  .00039043  00000+0  10434-2 0  9999
2 65763  51.8638  18.3881 0007534  49.5459 310.6184 15.37674339 13515
